{
  "type": "FeatureCollection",
  "features": [
    {
      "type": "Feature",
      "properties": {
        "norad_id": 31620,
        "name": "FENGYUN 1C DEB",
        "group": "fengyun-1c-debris",
        "lat": -78.68629565002766,
        "lon": 121.6693125550888,
        "alt_km": 784.5380096178496,
        "timestamp": "2025-12-12T03:50:52.700580+00:00",
        "meta_object_name": "FENGYUN 1C DEB",
        "meta_object_id": "1999-025CAA",
        "meta_epoch": "2025-12-07T23:58:44.073408",
        "meta_mean_motion": 14.37123121,
        "meta_eccentricity": 0.00207062,
        "meta_inclination": 98.8866,
        "meta_ra_of_asc_node": 65.9275,
        "meta_arg_of_pericenter": 59.0655,
        "meta_mean_anomaly": 301.2562,
        "meta_ephemeris_type": 0,
        "meta_classification_type": "U",
        "meta_norad_cat_id": 31620,
        "meta_element_set_no": 999,
        "meta_rev_at_epoch": 65776,
        "meta_bstar": 0.0029103432,
        "meta_mean_motion_dot": 8.633e-05,
        "meta_mean_motion_ddot": 0,
        "tle_line1": "1 31620U 99025CAA 25341.99912122  .00008633  00000+0  29103-2 0  9993",
        "tle_line2": "2 31620  98.8866  65.9275 0020706  59.0655 301.2562 14.37123121657763"
      },
      "geometry": {
        "type": "Point",
        "coordinates": [
          121.6693125550888,
          -78.68629565002766
        ]
      }
    },
    {
      "type": "Feature",
      "properties": {
        "norad_id": 31622,
        "name": "FENGYUN 1C DEB",
        "group": "fengyun-1c-debris",
        "lat": -78.30548682919411,
        "lon": -147.65150791474335,
        "alt_km": 773.7133708621741,
        "timestamp": "2025-12-12T03:50:52.700590+00:00",
        "meta_object_name": "FENGYUN 1C DEB",
        "meta_object_id": "1999-025CAC",
        "meta_epoch": "2025-12-10T17:55:24.331296",
        "meta_mean_motion": 14.37145671,
        "meta_eccentricity": 0.00149837,
        "meta_inclination": 98.8158,
        "meta_ra_of_asc_node": 79.4695,
        "meta_arg_of_pericenter": 348.7081,
        "meta_mean_anomaly": 164.6667,
        "meta_ephemeris_type": 0,
        "meta_classification_type": "U",
        "meta_norad_cat_id": 31622,
        "meta_element_set_no": 999,
        "meta_rev_at_epoch": 95743,
        "meta_bstar": 0.0031007513,
        "meta_mean_motion_dot": 9.196e-05,
        "meta_mean_motion_ddot": 0,
        "tle_line1": "1 31622U 99025CAC 25344.74680939  .00009196  00000+0  31008-2 0  9991",
        "tle_line2": "2 31622  98.8158  79.4695 0014983 348.7081 164.6667 14.37145671957434"
      },
      "geometry": {
        "type": "Point",
        "coordinates": [
          -147.65150791474335,
          -78.30548682919411
        ]
      }
    },
    {
      "type": "Feature",
      "properties": {
        "norad_id": 31623,
        "name": "FENGYUN 1C DEB",
        "group": "fengyun-1c-debris",
        "lat": -50.84516808901948,
        "lon": -152.67493488141565,
        "alt_km": 886.2294712924249,
        "timestamp": "2025-12-12T03:50:52.700600+00:00",
        "meta_object_name": "FENGYUN 1C DEB",
        "meta_object_id": "1999-025CAD",
        "meta_epoch": "2025-12-02T20:02:22.350624",
        "meta_mean_motion": 13.82580933,
        "meta_eccentricity": 0.01951152,
        "meta_inclination": 97.6304,
        "meta_ra_of_asc_node": 190.283,
        "meta_arg_of_pericenter": 33.7651,
        "meta_mean_anomaly": 327.5758,
        "meta_ephemeris_type": 0,
        "meta_classification_type": "U",
        "meta_norad_cat_id": 31623,
        "meta_element_set_no": 999,
        "meta_rev_at_epoch": 57783,
        "meta_bstar": 0.00047153491,
        "meta_mean_motion_dot": 5.61e-06,
        "meta_mean_motion_ddot": 0,
        "tle_line1": "1 31623U 99025CAD 25336.83498091  .00000561  00000+0  47153-3 0  9995",
        "tle_line2": "2 31623  97.6304 190.2830 0195115  33.7651 327.5758 13.82580933577835"
      },
      "geometry": {
        "type": "Point",
        "coordinates": [
          -152.67493488141565,
          -50.84516808901948
        ]
      }
    },
    {
      "type": "Feature",
      "properties": {
        "norad_id": 31625,
        "name": "FENGYUN 1C DEB",
        "group": "fengyun-1c-debris",
        "lat": -24.40494507358056,
        "lon": -111.8796767142802,
        "alt_km": 818.6482836537134,
        "timestamp": "2025-12-12T03:50:52.700610+00:00",
        "meta_object_name": "FENGYUN 1C DEB",
        "meta_object_id": "1999-025CAF",
        "meta_epoch": "2025-12-11T12:06:41.685696",
        "meta_mean_motion": 14.55396008,
        "meta_eccentricity": 0.01493927,
        "meta_inclination": 98.8062,
        "meta_ra_of_asc_node": 71.4625,
        "meta_arg_of_pericenter": 19.5199,
        "meta_mean_anomaly": 351.888,
        "meta_ephemeris_type": 0,
        "meta_classification_type": "U",
        "meta_norad_cat_id": 31625,
        "meta_element_set_no": 999,
        "meta_rev_at_epoch": 98375,
        "meta_bstar": 0.0002351399,
        "meta_mean_motion_dot": 1.127e-05,
        "meta_mean_motion_ddot": 0,
        "tle_line1": "1 31625U 99025CAF 25345.50464914  .00001127  00000+0  23514-3 0  9992",
        "tle_line2": "2 31625  98.8062  71.4625 0149392  19.5199 351.8880 14.55396008983755"
      },
      "geometry": {
        "type": "Point",
        "coordinates": [
          -111.8796767142802,
          -24.40494507358056
        ]
      }
    },
    {
      "type": "Feature",
      "properties": {
        "norad_id": 31627,
        "name": "FENGYUN 1C DEB",
        "group": "fengyun-1c-debris",
        "lat": 60.336631203241346,
        "lon": -130.67893052733814,
        "alt_km": 737.7605992579529,
        "timestamp": "2025-12-12T03:50:52.700620+00:00",
        "meta_object_name": "FENGYUN 1C DEB",
        "meta_object_id": "1999-025CAH",
        "meta_epoch": "2025-11-26T09:13:22.975680",
        "meta_mean_motion": 14.35408996,
        "meta_eccentricity": 0.00515931,
        "meta_inclination": 98.5313,
        "meta_ra_of_asc_node": 18.4415,
        "meta_arg_of_pericenter": 201.9005,
        "meta_mean_anomaly": 157.9975,
        "meta_ephemeris_type": 0,
        "meta_classification_type": "U",
        "meta_norad_cat_id": 31627,
        "meta_element_set_no": 999,
        "meta_rev_at_epoch": 64532,
        "meta_bstar": 0.0013473839,
        "meta_mean_motion_dot": 3.885e-05,
        "meta_mean_motion_ddot": 0,
        "tle_line1": "1 31627U 99025CAH 25330.38429370  .00003885  00000+0  13474-2 0  9997",
        "tle_line2": "2 31627  98.5313  18.4415 0051593 201.9005 157.9975 14.35408996645325"
      },
      "geometry": {
        "type": "Point",
        "coordinates": [
          -130.67893052733814,
          60.336631203241346
        ]
      }
    },
    {
      "type": "Feature",
      "properties": {
        "norad_id": 31628,
        "name": "FENGYUN 1C DEB",
        "group": "fengyun-1c-debris",
        "lat": -2.5050976274239645,
        "lon": 20.267689573863848,
        "alt_km": 846.0912313453164,
        "timestamp": "2025-12-12T03:50:52.700631+00:00",
        "meta_object_name": "FENGYUN 1C DEB",
        "meta_object_id": "1999-025CAJ",
        "meta_epoch": "2025-12-11T07:54:48.314304",
        "meta_mean_motion": 13.86824838,
        "meta_eccentricity": 0.01689763,
        "meta_inclination": 102.2698,
        "meta_ra_of_asc_node": 199.7269,
        "meta_arg_of_pericenter": 223.5852,
        "meta_mean_anomaly": 135.1839,
        "meta_ephemeris_type": 0,
        "meta_classification_type": "U",
        "meta_norad_cat_id": 31628,
        "meta_element_set_no": 999,
        "meta_rev_at_epoch": 93280,
        "meta_bstar": 0.0035626091,
        "meta_mean_motion_dot": 4.587e-05,
        "meta_mean_motion_ddot": 0,
        "tle_line1": "1 31628U 99025CAJ 25345.32972586  .00004587  00000+0  35626-2 0  9993",
        "tle_line2": "2 31628 102.2698 199.7269 0168976 223.5852 135.1839 13.86824838932800"
      },
      "geometry": {
        "type": "Point",
        "coordinates": [
          20.267689573863848,
          -2.5050976274239645
        ]
      }
    },
    {
      "type": "Feature",
      "properties": {
        "norad_id": 31629,
        "name": "FENGYUN 1C DEB",
        "group": "fengyun-1c-debris",
        "lat": 15.050920563909726,
        "lon": 28.566904274450028,
        "alt_km": 771.2754384650971,
        "timestamp": "2025-12-12T03:50:52.700641+00:00",
        "meta_object_name": "FENGYUN 1C DEB",
        "meta_object_id": "1999-025CAK",
        "meta_epoch": "2025-12-11T09:06:19.184544",
        "meta_mean_motion": 14.14603971,
        "meta_eccentricity": 0.01037698,
        "meta_inclination": 102.1333,
        "meta_ra_of_asc_node": 30.8256,
        "meta_arg_of_pericenter": 30.7835,
        "meta_mean_anomaly": 329.9357,
        "meta_ephemeris_type": 0,
        "meta_classification_type": "U",
        "meta_norad_cat_id": 31629,
        "meta_element_set_no": 999,
        "meta_rev_at_epoch": 94427,
        "meta_bstar": 0.0036724115,
        "meta_mean_motion_dot": 7.369e-05,
        "meta_mean_motion_ddot": 0,
        "tle_line1": "1 31629U 99025CAK 25345.37938871  .00007369  00000+0  36724-2 0  9999",
        "tle_line2": "2 31629 102.1333  30.8256 0103769  30.7835 329.9357 14.14603971944272"
      },
      "geometry": {
        "type": "Point",
        "coordinates": [
          28.566904274450028,
          15.050920563909726
        ]
      }
    }
  ]
}